<?xml version='1.0' encoding='utf-8'?>
<kml xmlns="http://www.opengis.net/kml/2.2">
  <Document>
    <Placemark>
      <name>Els Avencs de La Febro</name>
      <LineString>
        <extrude>1</extrude>
        <tessellate>1</tessellate>
        <altitudeMode>relativeToGround</altitudeMode>
        <coordinates>
          1.0264,41.2828,800
          1.0098,41.2769,948
          1.0107,41.2775,956
          1.0115,41.2782,968
          1.0129,41.2790,973
          1.0134,41.2792,969
          1.0139,41.2795,964
          1.0142,41.2797,972
          1.0148,41.2800,981
          1.0155,41.2806,990
          1.0131,41.2784,960
</coordinates>
      </LineString>
    </Placemark>
  </Document>
</kml>