<?xml version='1.0' encoding='utf-8'?>
<kml xmlns="http://www.opengis.net/kml/2.2">
  <Document>
    <Placemark>
      <name>La Font de la Llúdriga</name>
      <LineString>
        <extrude>0</extrude>
        <tessellate>1</tessellate>
        <altitudeMode>clampToGround</altitudeMode>
        <coordinates>
          1.0456,41.2950
          1.0448,41.2958
          1.0452,41.2954
          1.0457,41.2949
          1.0463,41.2946
          1.0469,41.2948
          1.0476,41.2952
          1.0468,41.2958
          1.0460,41.2955
          1.0474,41.2951
          1.0454,41.2956
</coordinates>
      </LineString>
    </Placemark>
  </Document>
</kml>